{
    "links": {
        "self": "http://www.neowsapp.com/rest/v1/neo/3335227?api_key=iIulBulltgU6a56xZRHN4H3l9WmuAYTsLGpBGhQ2"
    },
    "id": "3335227",
    "neo_reference_id": "3335227",
    "name": "(2006 KK103)",
    "designation": "2006 KK103",
    "nasa_jpl_url": "http://ssd.jpl.nasa.gov/sbdb.cgi?sstr=3335227",
    "absolute_magnitude_h": 22.5,
    "estimated_diameter": {
        "kilometers": {
            "estimated_diameter_min": 0.0840533402,
            "estimated_diameter_max": 0.1879489824
        },
        "meters": {
            "estimated_diameter_min": 84.0533402073,
            "estimated_diameter_max": 187.9489824394
        },
        "miles": {
            "estimated_diameter_min": 0.0522283081,
            "estimated_diameter_max": 0.1167860472
        },
        "feet": {
            "estimated_diameter_min": 275.7655606856,
            "estimated_diameter_max": 616.6305395464
        }
    },
    "is_potentially_hazardous_asteroid": false,
    "close_approach_data": [
        {
            "close_approach_date": "2006-06-23",
            "close_approach_date_full": "2006-Jun-23 19:07",
            "epoch_date_close_approach": 1151089620000,
            "relative_velocity": {
                "kilometers_per_second": "6.1428575055",
                "kilometers_per_hour": "22114.28701966",
                "miles_per_hour": "13740.957953966"
            },
            "miss_distance": {
                "astronomical": "0.1411296821",
                "lunar": "54.8994463369",
                "kilometers": "21112699.835937127",
                "miles": "13118823.3501292726"
            },
            "orbiting_body": "Earth"
        }
    ],
    "orbital_data": {
        "orbit_id": "10",
        "orbit_determination_date": "2017-04-06 09:08:31",
        "first_observation_date": "2006-05-26",
        "last_observation_date": "2006-07-15",
        "data_arc_in_days": 50,
        "observations_used": 27,
        "orbit_uncertainty": "7",
        "minimum_orbit_intersection": ".144752",
        "jupiter_tisserand_invariant": "3.565",
        "epoch_osculation": "2459000.5",
        "eccentricity": ".4626369425671179",
        "semi_major_axis": "2.130834716419108",
        "inclination": "8.123799247978255",
        "ascending_node_longitude": "70.15897394138103",
        "orbital_period": "1136.117037492623",
        "perihelion_distance": "1.1450318580991",
        "perihelion_argument": "210.6668417989135",
        "aphelion_distance": "3.116637574739116",
        "perihelion_time": "2458462.022166512007",
        "mean_anomaly": "170.6268048611463",
        "mean_motion": ".3168687627416532",
        "equinox": "J2000",
        "orbit_class": {
            "orbit_class_type": "AMO",
            "orbit_class_description": "Near-Earth asteroid orbits similar to that of 1221 Amor",
            "orbit_class_range": "1.017 AU < q (perihelion) < 1.3 AU"
        }
    },
    "is_sentry_object": false
}